satname,norad_id,inclination_deg,eccentricity,mean_motion_rev_per_day,perigee_km,apogee_km,l1,l2
STARLINK-1506,45747,53.0635,0.0001808,15.21741631,499.34347000708385,501.83081665731333,1 45747U 20038T   25314.63639377  .00010887  00000+0  48798-3 0  9991,2 45747  53.0635  31.3003 0001808 285.0134  75.0662 15.21741631298535
STARLINK-1464,45751,53.0561,0.000113,15.0640599,546.4106371992839,547.9757618243748,1 45751U 20038X   25315.20292294  .00000485  00000+0  51419-4 0  9991,2 45751  53.0561  28.5269 0001130  66.6734 293.4374 15.06405990298621
STARLINK-1477,45754,53.0548,0.0002318,15.07382178,542.5983600473255,545.8075568520617,1 45754U 20038AA  25315.21291829  .00025108  00000+0  16540-2 0  9991,2 45754  53.0548  28.4296 0002318  25.1883 334.9219 15.07382178298624
STARLINK-1478,45755,53.0539,9.82e-05,15.06404667,546.5171864686054,547.8773221161482,1 45755U 20038AB  25315.23609482  .00003896  00000+0  28028-3 0  9997,2 45755  53.0539  28.3764 0000982  73.8096 286.3001 15.06404667298610
STARLINK-1484,45756,53.0161,0.0003549,15.6334734,375.5982205375667,380.39372372118396,1 45756U 20038AC  25315.33336806  .00039129  00000+0  42115-3 0  9997,2 45756  53.0161 289.2826 0003549  51.2049 302.1072 15.63347340  5763
STARLINK-1493,45759,53.0546,0.0001224,15.06403518,546.3531144521894,548.0484371397033,1 45759U 20038AF  25315.22504032  .00002500  00000+0  18663-3 0  9990,2 45759  53.0546  28.4254 0001224  87.7175 272.3955 15.06403518298616
STARLINK-1494,45760,53.0553,0.0003679,15.52187099,407.84424999181465,412.83921264231776,1 45760U 20038AG  25314.51929047  .00042384  00000+0  69154-3 0  9995,2 45760  53.0553  13.4767 0003679  37.8853 322.2414 15.52187099298770
STARLINK-1502,45764,53.0564,0.0001477,15.06422338,546.1202321613573,548.1659599017257,1 45764U 20038AL  25314.59473968  .00005715  00000+0  40202-3 0  9993,2 45764  53.0564  31.2600 0001477 100.5187 259.5969 15.06422338298530
STARLINK-1470,45772,53.0517,0.000355,15.18544703,507.79271073039945,512.6834570399587,1 45772U 20038AU  25315.29473703  .00058085  00000+0  27707-2 0  9999,2 45772  53.0517 359.6951 0003550 305.4425  54.6237 15.18544703299030
STARLINK-1482,45773,53.0545,0.0002054,15.064051,545.7734638336606,548.6183906001625,1 45773U 20038AV  25315.15685202  .00009498  00000+0  65558-3 0  9995,2 45773  53.0545   8.7373 0002054  76.3127 283.8091 15.06405100298894
STARLINK-1496,45780,53.0558,6.53e-05,15.06391849,546.7843127998212,547.688766584105,1 45780U 20038BC  25315.19001791 -.00003146  00000+0 -19247-3 0  9992,2 45780  53.0558   8.5841 0000653  61.9508 298.1547 15.06391849298888
STARLINK-1497,45781,53.0392,0.0006458,15.57207372,391.3690801269149,400.11822437736373,1 45781U 20038BD  25315.22801654  .00229243  00000+0  30118-2 0  9998,2 45781  53.0392 310.0162 0006458 347.7993  12.2860 15.57207372299724
STARLINK-1510,45784,53.0309,0.0004184,15.74459895,343.35510282581254,348.98200171195185,1 45784U 20038BG  25315.33336806  .00357853  00000+0  23175-2 0  9999,2 45784  53.0309 284.4010 0004184  83.9950 302.2893 15.74459895  5975
STARLINK-1513,45786,53.058,0.000144,15.06388798,546.2486355313931,548.2431458039046,1 45786U 20038BJ  25315.15315786  .00000106  00000+0  26009-4 0  9992,2 45786  53.0580   8.7505 0001440  90.4986 269.6168 15.06388798298892
STARLINK-1522,46027,53.0565,0.0001688,15.06397291,546.0508604074757,548.3888608836287,1 46027U 20055A   25315.26650435  .00000990  00000+0  85347-4 0  9996,2 46027  53.0565 298.2420 0001688  94.4180 265.7002 15.06397291291031
STARLINK-1523,46028,53.0541,0.0001281,15.06397543,546.3319501847291,548.1062264145512,1 46028U 20055B   25315.21489984  .00000319  00000+0  40285-4 0  9998,2 46028  53.0541 298.4717 0001281  96.0077 264.1058 15.06397543291044
STARLINK-1526,46029,53.0549,0.0001443,15.06391497,546.2382869737512,548.2369500886598,1 46029U 20055C   25315.27387393  .00000480  00000+0  51157-4 0  9995,2 46029  53.0549 298.2041 0001443  89.8760 270.2395 15.06391497291044
STARLINK-1555,46032,53.0547,0.0001298,15.06409287,546.2841882187813,548.0820013153825,1 46032U 20055F   25315.25912546  .00004923  00000+0  34904-3 0  9997,2 46032  53.0547 298.2719 0001298  86.3543 273.7594 15.06409287291043
STARLINK-1556,46033,53.0544,0.0001348,15.0641137,546.2431784568325,548.1102430332494,1 46033U 20055G   25315.24071084  .00002715  00000+0  20100-3 0  9990,2 46033  53.0544 298.3525 0001348  95.0004 265.1139 15.06411370291015
STARLINK-1557,46034,53.0552,0.0001388,15.06393883,546.2690647436739,548.1915467077433,1 46034U 20055H   25315.24438980  .00001182  00000+0  98254-4 0  9996,2 46034  53.0552 298.3387 0001388  91.4930 268.6218 15.06393883291017
STARLINK-1558,46035,53.0557,0.0001409,15.06401693,546.2305882612618,548.1821500226861,1 46035U 20055J   25315.25175693  .00002078  00000+0  15838-3 0  9998,2 46035  53.0557 298.3078 0001409  98.7122 261.4027 15.06401693291048
STARLINK-1560,46036,53.0553,0.0001432,15.06400987,546.2168234467681,548.2002424073971,1 46036U 20055K   25315.23702164  .00003076  00000+0  22532-3 0  9994,2 46036  53.0553 298.3759 0001432  85.7609 274.3543 15.06400987291044
STARLINK-1567,46038,53.0549,0.0001575,15.06402744,546.1124069129446,548.2938890595606,1 46038U 20055M   25315.24807043 -.00000261  00000+0  13981-5 0  9993,2 46038  53.0549 298.3220 0001575  93.3635 266.7535 15.06402744291034
STARLINK-1569,46039,53.0554,0.0001778,15.06405751,545.9626081679389,548.42525584736,1 46039U 20055N   25315.18909734 -.00000259  00000+0  15186-5 0  9993,2 46039  53.0554 298.5891 0001778  94.8827 265.2365 15.06405751291026
STARLINK-1582,46043,53.055,0.0001501,15.06393701,546.1913658170106,548.2703612496434,1 46043U 20055S   25315.26282432  .00000241  00000+0  35049-4 0  9995,2 46043  53.0550 298.2574 0001501  89.8803 270.2358 15.06393701291034
STARLINK-1591,46045,53.0549,0.000143,15.06413173,546.1808658143073,548.1615039551853,1 46045U 20055U   25315.22227446  .00002615  00000+0  19434-3 0  9993,2 46045  53.0549 298.4374 0001430 101.5485 258.5664 15.06413173291016
STARLINK-1524,46047,53.0541,0.0001416,15.06394283,546.2484479383975,548.2097116121895,1 46047U 20055W   25315.24162840  .00001885  00000+0  14543-3 0  9997,2 46047  53.0541 288.3524 0001416  82.3168 277.7982 15.06394283291176
STARLINK-1527,46048,53.0552,0.0001609,15.0640533,546.0809363495364,548.3095082586742,1 46048U 20055X   25315.23793020  .00002425  00000+0  18165-3 0  9992,2 46048  53.0552 288.3690 0001609  69.8250 290.2912 15.06405330291156
